ISS (ZARYA)             
1 25544U 98067A   26081.16296743  .00015089  00000+0  28686-3 0  9990
2 25544  51.6343  10.6992 0006186 218.8034 141.2511 15.48444672558264
POISK                   
1 36086U 09060A   26081.16296743  .00015089  00000+0  28686-3 0  9998
2 36086  51.6343  10.6992 0006186 218.8034 141.2511 15.48444672557435
CSS (TIANHE)            
1 48274U 21035A   26081.25526573  .00025791  00000+0  29763-3 0  9991
2 48274  41.4659 131.6673 0005233 353.6422   6.4349 15.61310205279571
ISS (NAUKA)             
1 49044U 21066A   26081.16296743  .00015089  00000+0  28686-3 0  9996
2 49044  51.6343  10.6992 0006186 218.8034 141.2511 15.48444672557477
FREGAT DEB              
1 49271U 11037PF  26080.69031781  .00017690  00000+0  24933-1 0  9990
2 49271  51.6475 264.7257 0963772  86.8825 284.1699 12.40566860214180
CSS (WENTIAN)           
1 53239U 22085A   26081.25526573  .00025791  00000+0  29763-3 0  9994
2 53239  41.4659 131.6673 0005233 353.6422   6.4349 15.61310205279107
CSS (MENGTIAN)          
1 54216U 22143A   26081.25526573  .00025791  00000+0  29763-3 0  9995
2 54216  41.4659 131.6673 0005233 353.6422   6.4349 15.61310205279103
TIANZHOU-9              
1 64786U 25149A   26081.25526573  .00025791  00000+0  29763-3 0  9997
2 64786  41.4659 131.6673 0005233 353.6422   6.4349 15.61310205279106
PROGRESS-MS 32          
1 65586U 25204A   26081.16296743  .00015089  00000+0  28686-3 0  9993
2 65586  51.6343  10.6992 0006186 218.8034 141.2511 15.48444672554507
YOTSUBA-KULOVER         
1 65941U 98067XN  26081.01168020  .00331846  00000+0  12296-2 0  9996
2 65941  51.6205 353.0991 0005053 159.5278 200.5930 15.86660118 25453
BOTAN                   
1 65943U 98067XQ  26080.76770530  .00346024  00000+0  13285-2 0  9997
2 65943  51.6235 354.4926 0005728 158.9321 201.1920 15.85890398 25418
HRC MONOBLOCK CAMERA    
1 66052U 98067XR  26081.04110266  .00061464  00000+0  65181-3 0  9990
2 66052  51.6295   3.1339 0003857 148.5203 211.6023 15.63493766 24320
HTV-X1                  
1 66174U 25241A   26073.34423285  .00013198  00000+0  56794-3 0  9992
2 66174  51.6357  50.7100 0005732 187.3443 172.7451 15.22910005 21660
SZ-21 MODULE            
1 66515U 25246C   26080.84864069  .00044117  00000+0  36505-3 0  9991
2 66515  41.4733 128.4589 0000505 233.4003 126.6793 15.69453239 19987
SHENZHOU-22             
1 66645U 25272A   26081.25526573  .00025791  00000+0  29763-3 0  9990
2 66645  41.4659 131.6673 0005233 353.6422   6.4349 15.61310205279102
SOYUZ-MS 28             
1 66664U 25275A   26081.16296743  .00015089  00000+0  28686-3 0  9999
2 66664  51.6343  10.6992 0006186 218.8034 141.2511 15.48444672557711
