[{"OBJECT_NAME":"ISS (ZARYA)","OBJECT_ID":"1998-067A","EPOCH":"2026-03-22T03:54:40.385952","MEAN_MOTION":15.48444672,"ECCENTRICITY":0.00061864,"INCLINATION":51.6343,"RA_OF_ASC_NODE":10.6992,"ARG_OF_PERICENTER":218.8034,"MEAN_ANOMALY":141.2511,"EPHEMERIS_TYPE":0,"CLASSIFICATION_TYPE":"U","NORAD_CAT_ID":25544,"ELEMENT_SET_NO":999,"REV_AT_EPOCH":55826,"BSTAR":0.00028686415,"MEAN_MOTION_DOT":0.00015089,"MEAN_MOTION_DDOT":0},{"OBJECT_NAME":"POISK","OBJECT_ID":"2009-060A","EPOCH":"2026-03-22T03:54:40.385952","MEAN_MOTION":15.48444672,"ECCENTRICITY":0.00061864,"INCLINATION":51.6343,"RA_OF_ASC_NODE":10.6992,"ARG_OF_PERICENTER":218.8034,"MEAN_ANOMALY":141.2511,"EPHEMERIS_TYPE":0,"CLASSIFICATION_TYPE":"U","NORAD_CAT_ID":36086,"ELEMENT_SET_NO":999,"REV_AT_EPOCH":55743,"BSTAR":0.00028686415,"MEAN_MOTION_DOT":0.00015089,"MEAN_MOTION_DDOT":0},{"OBJECT_NAME":"CSS (TIANHE)","OBJECT_ID":"2021-035A","EPOCH":"2026-03-22T06:07:34.959072","MEAN_MOTION":15.61310205,"ECCENTRICITY":0.00052339,"INCLINATION":41.4659,"RA_OF_ASC_NODE":131.6673,"ARG_OF_PERICENTER":353.6422,"MEAN_ANOMALY":6.4349,"EPHEMERIS_TYPE":0,"CLASSIFICATION_TYPE":"U","NORAD_CAT_ID":48274,"ELEMENT_SET_NO":999,"REV_AT_EPOCH":27957,"BSTAR":0.00029762829,"MEAN_MOTION_DOT":0.00025791,"MEAN_MOTION_DDOT":0},{"OBJECT_NAME":"ISS (NAUKA)","OBJECT_ID":"2021-066A","EPOCH":"2026-03-22T03:54:40.385952","MEAN_MOTION":15.48444672,"ECCENTRICITY":0.00061864,"INCLINATION":51.6343,"RA_OF_ASC_NODE":10.6992,"ARG_OF_PERICENTER":218.8034,"MEAN_ANOMALY":141.2511,"EPHEMERIS_TYPE":0,"CLASSIFICATION_TYPE":"U","NORAD_CAT_ID":49044,"ELEMENT_SET_NO":999,"REV_AT_EPOCH":55747,"BSTAR":0.00028686415,"MEAN_MOTION_DOT":0.00015089,"MEAN_MOTION_DDOT":0},{"OBJECT_NAME":"FREGAT DEB","OBJECT_ID":"2011-037PF","EPOCH":"2026-03-21T16:34:03.458784","MEAN_MOTION":12.4056686,"ECCENTRICITY":0.09637722,"INCLINATION":51.6475,"RA_OF_ASC_NODE":264.7257,"ARG_OF_PERICENTER":86.8825,"MEAN_ANOMALY":284.1699,"EPHEMERIS_TYPE":0,"CLASSIFICATION_TYPE":"U","NORAD_CAT_ID":49271,"ELEMENT_SET_NO":999,"REV_AT_EPOCH":21418,"BSTAR":0.024932939,"MEAN_MOTION_DOT":0.0001769,"MEAN_MOTION_DDOT":0},{"OBJECT_NAME":"CSS (WENTIAN)","OBJECT_ID":"2022-085A","EPOCH":"2026-03-22T06:07:34.959072","MEAN_MOTION":15.61310205,"ECCENTRICITY":0.00052339,"INCLINATION":41.4659,"RA_OF_ASC_NODE":131.6673,"ARG_OF_PERICENTER":353.6422,"MEAN_ANOMALY":6.4349,"EPHEMERIS_TYPE":0,"CLASSIFICATION_TYPE":"U","NORAD_CAT_ID":53239,"ELEMENT_SET_NO":999,"REV_AT_EPOCH":27910,"BSTAR":0.00029762829,"MEAN_MOTION_DOT":0.00025791,"MEAN_MOTION_DDOT":0},{"OBJECT_NAME":"CSS (MENGTIAN)","OBJECT_ID":"2022-143A","EPOCH":"2026-03-22T06:07:34.959072","MEAN_MOTION":15.61310205,"ECCENTRICITY":0.00052339,"INCLINATION":41.4659,"RA_OF_ASC_NODE":131.6673,"ARG_OF_PERICENTER":353.6422,"MEAN_ANOMALY":6.4349,"EPHEMERIS_TYPE":0,"CLASSIFICATION_TYPE":"U","NORAD_CAT_ID":54216,"ELEMENT_SET_NO":999,"REV_AT_EPOCH":27910,"BSTAR":0.00029762829,"MEAN_MOTION_DOT":0.00025791,"MEAN_MOTION_DDOT":0},{"OBJECT_NAME":"TIANZHOU-9","OBJECT_ID":"2025-149A","EPOCH":"2026-03-22T06:07:34.959072","MEAN_MOTION":15.61310205,"ECCENTRICITY":0.00052339,"INCLINATION":41.4659,"RA_OF_ASC_NODE":131.6673,"ARG_OF_PERICENTER":353.6422,"MEAN_ANOMALY":6.4349,"EPHEMERIS_TYPE":0,"CLASSIFICATION_TYPE":"U","NORAD_CAT_ID":64786,"ELEMENT_SET_NO":999,"REV_AT_EPOCH":27910,"BSTAR":0.00029762829,"MEAN_MOTION_DOT":0.00025791,"MEAN_MOTION_DDOT":0},{"OBJECT_NAME":"PROGRESS-MS 32","OBJECT_ID":"2025-204A","EPOCH":"2026-03-22T03:54:40.385952","MEAN_MOTION":15.48444672,"ECCENTRICITY":0.00061864,"INCLINATION":51.6343,"RA_OF_ASC_NODE":10.6992,"ARG_OF_PERICENTER":218.8034,"MEAN_ANOMALY":141.2511,"EPHEMERIS_TYPE":0,"CLASSIFICATION_TYPE":"U","NORAD_CAT_ID":65586,"ELEMENT_SET_NO":999,"REV_AT_EPOCH":55450,"BSTAR":0.00028686415,"MEAN_MOTION_DOT":0.00015089,"MEAN_MOTION_DDOT":0},{"OBJECT_NAME":"YOTSUBA-KULOVER","OBJECT_ID":"1998-067XN","EPOCH":"2026-03-22T00:16:49.169280","MEAN_MOTION":15.86660118,"ECCENTRICITY":0.00050535,"INCLINATION":51.6205,"RA_OF_ASC_NODE":353.0991,"ARG_OF_PERICENTER":159.5278,"MEAN_ANOMALY":200.593,"EPHEMERIS_TYPE":0,"CLASSIFICATION_TYPE":"U","NORAD_CAT_ID":65941,"ELEMENT_SET_NO":999,"REV_AT_EPOCH":2545,"BSTAR":0.0012296392,"MEAN_MOTION_DOT":0.00331846,"MEAN_MOTION_DDOT":0},{"OBJECT_NAME":"BOTAN","OBJECT_ID":"1998-067XQ","EPOCH":"2026-03-21T18:25:29.737920","MEAN_MOTION":15.85890398,"ECCENTRICITY":0.00057285,"INCLINATION":51.6235,"RA_OF_ASC_NODE":354.4926,"ARG_OF_PERICENTER":158.9321,"MEAN_ANOMALY":201.192,"EPHEMERIS_TYPE":0,"CLASSIFICATION_TYPE":"U","NORAD_CAT_ID":65943,"ELEMENT_SET_NO":999,"REV_AT_EPOCH":2541,"BSTAR":0.0013285395,"MEAN_MOTION_DOT":0.00346024,"MEAN_MOTION_DDOT":0},{"OBJECT_NAME":"HRC MONOBLOCK CAMERA","OBJECT_ID":"1998-067XR","EPOCH":"2026-03-22T00:59:11.269824","MEAN_MOTION":15.63493766,"ECCENTRICITY":0.0003857,"INCLINATION":51.6295,"RA_OF_ASC_NODE":3.1339,"ARG_OF_PERICENTER":148.5203,"MEAN_ANOMALY":211.6023,"EPHEMERIS_TYPE":0,"CLASSIFICATION_TYPE":"U","NORAD_CAT_ID":66052,"ELEMENT_SET_NO":999,"REV_AT_EPOCH":2432,"BSTAR":0.00065181258,"MEAN_MOTION_DOT":0.00061464,"MEAN_MOTION_DDOT":0},{"OBJECT_NAME":"HTV-X1","OBJECT_ID":"2025-241A","EPOCH":"2026-03-14T08:15:41.718240","MEAN_MOTION":15.22910005,"ECCENTRICITY":0.00057324,"INCLINATION":51.6357,"RA_OF_ASC_NODE":50.71,"ARG_OF_PERICENTER":187.3443,"MEAN_ANOMALY":172.7451,"EPHEMERIS_TYPE":0,"CLASSIFICATION_TYPE":"U","NORAD_CAT_ID":66174,"ELEMENT_SET_NO":999,"REV_AT_EPOCH":2166,"BSTAR":0.0005679389,"MEAN_MOTION_DOT":0.00013198,"MEAN_MOTION_DDOT":0},{"OBJECT_NAME":"SZ-21 MODULE","OBJECT_ID":"2025-246C","EPOCH":"2026-03-21T20:22:02.555616","MEAN_MOTION":15.69453239,"ECCENTRICITY":5.056e-5,"INCLINATION":41.4733,"RA_OF_ASC_NODE":128.4589,"ARG_OF_PERICENTER":233.4003,"MEAN_ANOMALY":126.6793,"EPHEMERIS_TYPE":0,"CLASSIFICATION_TYPE":"U","NORAD_CAT_ID":66515,"ELEMENT_SET_NO":999,"REV_AT_EPOCH":1998,"BSTAR":0.00036504589,"MEAN_MOTION_DOT":0.00044117,"MEAN_MOTION_DDOT":0},{"OBJECT_NAME":"SHENZHOU-22","OBJECT_ID":"2025-272A","EPOCH":"2026-03-22T06:07:34.959072","MEAN_MOTION":15.61310205,"ECCENTRICITY":0.00052339,"INCLINATION":41.4659,"RA_OF_ASC_NODE":131.6673,"ARG_OF_PERICENTER":353.6422,"MEAN_ANOMALY":6.4349,"EPHEMERIS_TYPE":0,"CLASSIFICATION_TYPE":"U","NORAD_CAT_ID":66645,"ELEMENT_SET_NO":999,"REV_AT_EPOCH":27910,"BSTAR":0.00029762829,"MEAN_MOTION_DOT":0.00025791,"MEAN_MOTION_DDOT":0},{"OBJECT_NAME":"SOYUZ-MS 28","OBJECT_ID":"2025-275A","EPOCH":"2026-03-22T03:54:40.385952","MEAN_MOTION":15.48444672,"ECCENTRICITY":0.00061864,"INCLINATION":51.6343,"RA_OF_ASC_NODE":10.6992,"ARG_OF_PERICENTER":218.8034,"MEAN_ANOMALY":141.2511,"EPHEMERIS_TYPE":0,"CLASSIFICATION_TYPE":"U","NORAD_CAT_ID":66664,"ELEMENT_SET_NO":999,"REV_AT_EPOCH":55771,"BSTAR":0.00028686415,"MEAN_MOTION_DOT":0.00015089,"MEAN_MOTION_DDOT":0}]
